NORAD_CAT_ID,OBJECT_NAME,OBJECT_TYPE,EPOCH,MEAN_MOTION,ECCENTRICITY,INCLINATION,RA_OF_ASC_NODE,ARG_OF_PERICENTER,MEAN_ANOMALY,BSTAR,MEAN_MOTION_DOT,MEAN_MOTION_DDOT,TLE_LINE0,TLE_LINE1,TLE_LINE2,SEMIMAJOR_AXIS,PERIOD,APOGEE,PERIGEE,DECAYED
56495.0,STARLINK-5529,PAYLOAD,2023-08-30 20:30:25,15.69479518,0.0003036,69.9978,290.0259,318.2237,41.8726,0.00074476,0.00088642,0.0,0 STARLINK-5529,1 56495U 23064AZ  23242.85445947  .00088642  00000-0  74476-3 0  9992,2 56495  69.9978 290.0259 0003036 318.2237  41.8726 15.69479518 17623,6738.523,91.75,362.434,358.343,0.0
56495.0,STARLINK-5529,PAYLOAD,2023-08-31 11:48:34,15.69331454,0.0002581,69.996,288.2368,194.0853,166.0271,-0.00056886,-0.00066423,0.0,0 STARLINK-5529,1 56495U 23064AZ  23243.49206020 -.00066423  00000-0 -56886-3 0  9990,2 56495  69.9960 288.2368 0002581 194.0853 166.0271 15.69331454 18073,6738.947,91.759,362.552,359.073,0.0
56495.0,STARLINK-5529,PAYLOAD,2023-09-01 04:00:00,15.6992308,0.0003375,70.0005,286.3332,269.4079,305.9041,0.00013162,0.00015642,0.0,0 STARLINK-5529,1 56495U 23064AZ  23244.16667824  .00015642  00000-0  13162-3 0  9993,2 56495  70.0005 286.3332 0003375 269.4079 305.9041 15.69923080 18188,6737.254,91.724,361.393,356.845,0.0
56495.0,STARLINK-5529,PAYLOAD,2023-09-01 09:12:09,15.69928018,0.000243,69.9962,285.7255,277.4807,82.6112,6.7285e-06,5.97e-06,0.0,0 STARLINK-5529,1 56495U 23064AZ  23244.38344758  .00000597  00000-0  67285-5 0  9995,2 56495  69.9962 285.7255 0002430 277.4807  82.6112 15.69928018 17861,6737.24,91.724,360.742,357.468,0.0
56495.0,STARLINK-5529,PAYLOAD,2023-09-01 19:54:25,15.69928918,0.0003071,69.9962,284.4695,274.7194,85.3651,4.1951e-06,2.92e-06,0.0,0 STARLINK-5529,1 56495U 23064AZ  23244.82946307  .00000292  00000-0  41951-5 0  9996,2 56495  69.9962 284.4695 0003071 274.7194  85.3651 15.69928918 17931,6737.237,91.724,361.171,357.033,0.0
56495.0,STARLINK-5529,PAYLOAD,2023-09-02 02:01:26,15.69922155,0.0003154,69.9945,283.7536,268.613,91.4705,1.3638e-05,1.427e-05,0.0,0 STARLINK-5529,1 56495U 23064AZ  23245.08433152  .00001427  00000-0  13638-4 0  9995,2 56495  69.9945 283.7536 0003154 268.6130  91.4705 15.69922155 18321,6737.257,91.724,361.247,356.997,0.0
56495.0,STARLINK-5529,PAYLOAD,2023-09-03 02:29:27,15.69939385,0.0003525,69.9986,280.8865,275.7245,84.3548,5.8168e-06,4.87e-06,0.0,0 STARLINK-5529,1 56495U 23064AZ  23246.10379155  .00000487  00000-0  58168-5 0  9994,2 56495  69.9986 280.8865 0003525 275.7245  84.3548 15.69939385 18483,6737.207,91.723,361.447,356.698,0.0
56495.0,STARLINK-5529,PAYLOAD,2023-09-03 08:36:30,15.69907736,0.0003079,69.9989,280.1701,270.6784,89.4059,-2.991e-05,-3.805e-05,0.0,0 STARLINK-5529,1 56495U 23064AZ  23246.35868523 -.00003805  00000-0 -29910-4 0  9994,2 56495  69.9989 280.1701 0003079 270.6784  89.4059 15.69907736 18527,6737.298,91.725,361.237,357.089,0.0
56495.0,STARLINK-5529,PAYLOAD,2023-09-04 01:25:45,15.69919929,0.0003109,69.997,278.1981,271.7398,88.3441,-2.4055e-06,-5.02e-06,0.0,0 STARLINK-5529,1 56495U 23064AZ  23247.05955752 -.00000502  00000-0 -24055-5 0  9990,2 56495  69.9970 278.1981 0003109 271.7398  88.3441 15.69919929 18633,6737.263,91.724,361.223,357.033,0.0
56495.0,STARLINK-5529,PAYLOAD,2023-09-04 06:01:00,15.69923097,0.0002737,70.0,277.6635,271.6016,88.4867,2.34e-06,6.9e-07,0.0,0 STARLINK-5529,1 56495U 23064AZ  23247.25070533  .00000069  00000-0  23400-5 0  9996,2 56495  70.0000 277.6635 0002737 271.6016  88.4867 15.69923097 18311,6737.254,91.724,360.963,357.275,0.0
56495.0,STARLINK-5529,PAYLOAD,2023-09-05 01:53:47,15.69938908,0.0002808,69.9986,275.3325,267.2644,92.823,-2.0896e-05,-2.726e-05,0.0,0 STARLINK-5529,1 56495U 23064AZ  23248.07901971 -.00002726  00000-0 -20896-4 0  9995,2 56495  69.9986 275.3325 0002808 267.2644  92.8230 15.69938908 18791,6737.209,91.723,360.966,357.182,0.0
56495.0,STARLINK-5529,PAYLOAD,2023-09-05 18:43:04,15.69901846,0.0002899,69.9981,273.3627,271.1042,88.9821,4.0834e-05,4.695e-05,0.0,0 STARLINK-5529,1 56495U 23064AZ  23248.77991456  .00004695  00000-0  40834-4 0  9998,2 56495  69.9981 273.3627 0002899 271.1042  88.9821 15.69901846 18901,6737.315,91.725,361.133,357.227,0.0
56495.0,STARLINK-5529,PAYLOAD,2023-09-06 11:32:20,15.69927151,0.000337,69.9978,271.3912,273.2801,86.8009,4.5051e-06,3.29e-06,0.0,0 STARLINK-5529,1 56495U 23064AZ  23249.48078842  .00000329  00000-0  45051-5 0  9999,2 56495  69.9978 271.3912 0003370 273.2801  86.8009 15.69927151 19018,6737.242,91.724,361.378,356.837,0.0
56495.0,STARLINK-5529,PAYLOAD,2023-09-06 19:11:05,15.69923822,0.0003365,69.9975,270.4965,272.6605,87.4206,3.9461e-06,2.62e-06,0.0,0 STARLINK-5529,1 56495U 23064AZ  23249.79937366  .00000262  00000-0  39461-5 0  9992,2 56495  69.9975 270.4965 0003365 272.6605  87.4206 15.69923822 18715,6737.252,91.724,361.384,356.85,0.0
56495.0,STARLINK-5529,PAYLOAD,2023-09-07 12:00:22,15.69921985,0.0003426,69.9979,268.526,267.1999,92.8805,1.1711e-06,-7.2e-07,0.0,0 STARLINK-5529,1 56495U 23064AZ  23250.50025874 -.00000072  00000-0  11711-5 0  9993,2 56495  69.9979 268.5260 0003426 267.1999  92.8805 15.69921985 18823,6737.257,91.724,361.43,356.814,0.0
56495.0,STARLINK-5529,PAYLOAD,2023-09-07 13:32:07,15.69915526,0.0003628,69.9983,268.3467,272.6369,87.4411,1.246e-05,1.285e-05,0.0,0 STARLINK-5529,1 56495U 23064AZ  23250.56397769  .00001285  00000-0  12460-4 0  9991,2 56495  69.9983 268.3467 0003628 272.6369  87.4411 15.69915526 19188,6737.276,91.725,361.585,356.696,0.0
56495.0,STARLINK-5529,PAYLOAD,2023-09-08 03:17:53,15.69928889,0.000348,69.9981,266.7343,267.4793,92.6004,6.0972e-06,5.2e-06,0.0,0 STARLINK-5529,1 56495U 23064AZ  23251.13742047  .00000520  00000-0  60972-5 0  9991,2 56495  69.9981 266.7343 0003480 267.4793  92.6004 15.69928889 19272,6737.237,91.724,361.447,356.758,0.0
56495.0,STARLINK-5529,PAYLOAD,2023-09-08 10:56:39,15.69915126,0.0002856,69.9989,265.839,267.1214,92.9655,-2.7462e-06,-5.42e-06,0.0,0 STARLINK-5529,1 56495U 23064AZ  23251.45601629 -.00000542  00000-0 -27462-5 0  9999,2 56495  69.9989 265.8390 0002856 267.1214  92.9655 15.69915126 19324,6737.277,91.725,361.066,357.218,0.0
56495.0,STARLINK-5529,PAYLOAD,2023-09-08 12:28:24,15.69915835,0.0003027,69.9987,265.6597,270.0066,90.0783,-1.1891e-06,-3.55e-06,0.0,0 STARLINK-5529,1 56495U 23064AZ  23251.51973222 -.00000355  00000-0 -11891-5 0  9998,2 56495  69.9987 265.6597 0003027 270.0066  90.0783 15.69915835 18987,6737.275,91.725,361.179,357.1,0.0
56495.0,STARLINK-5529,PAYLOAD,2023-09-09 02:14:10,15.69923663,0.0003392,69.9975,264.0468,268.0031,92.0776,4.7854e-06,3.63e-06,0.0,0 STARLINK-5529,1 56495U 23064AZ  23252.09317656  .00000363  00000-0  47854-5 0  9990,2 56495  69.9975 264.0468 0003392 268.0031  92.0776 15.69923663 19420,6737.252,91.724,361.403,356.832,0.0
56495.0,STARLINK-5529,PAYLOAD,2023-09-09 09:52:56,15.69919513,0.0002417,69.9987,263.1535,277.2035,82.8886,1.0978e-05,1.108e-05,0.0,0 STARLINK-5529,1 56495U 23064AZ  23252.41176360  .00001108  00000-0  10978-4 0  9995,2 56495  69.9987 263.1535 0002417 277.2035  82.8886 15.69919513 19126,6737.264,91.724,360.758,357.501,0.0
56495.0,STARLINK-5529,PAYLOAD,2023-09-10 01:10:26,15.69930962,0.0003114,69.999,261.3625,258.1538,101.9309,9.7783e-06,9.64e-06,0.0,0 STARLINK-5529,1 56495U 23064AZ  23253.04892106  .00000964  00000-0  97783-5 0  9997,2 56495  69.9990 261.3625 0003114 258.1538 101.9309 15.69930962 19574,6737.232,91.724,361.194,356.999,0.0
56495.0,STARLINK-5529,PAYLOAD,2023-09-10 10:20:59,15.69907252,0.0002627,70.0004,260.2875,253.4524,106.6383,-8.9983e-06,-1.293e-05,0.0,0 STARLINK-5529,1 56495U 23064AZ  23253.43124077 -.00001293  00000-0 -89983-5 0  9996,2 56495  70.0004 260.2875 0002627 253.4524 106.6383 15.69907252 19636,6737.299,91.725,360.934,357.394,0.0
56495.0,STARLINK-5529,PAYLOAD,2023-09-10 17:59:44,15.69916559,0.0002379,69.9986,259.3894,277.4952,82.5973,7.5829e-06,6.99e-06,0.0,0 STARLINK-5529,1 56495U 23064AZ  23253.74981895  .00000699  00000-0  75829-5 0  9990,2 56495  69.9986 259.3894 0002379 277.4952  82.5973 15.69916559 19689,6737.273,91.725,360.741,357.535,0.0
56495.0,STARLINK-5529,PAYLOAD,2023-09-11 03:10:14,15.69923146,0.0002812,70.0001,258.3174,267.584,92.5034,1.5169e-05,1.612e-05,0.0,0 STARLINK-5529,1 56495U 23064AZ  23254.13211109  .00001612  00000-0  15169-4 0  9994,2 56495  70.0001 258.3174 0002812 267.5840  92.5034 15.69923146 19744,6737.254,91.724,361.013,357.224,0.0
56495.0,STARLINK-5529,PAYLOAD,2023-09-11 09:17:14,15.69926265,0.0002988,69.9999,257.6001,268.3209,91.7645,1.1264e-05,1.142e-05,0.0,0 STARLINK-5529,1 56495U 23064AZ  23254.38697680  .00001142  00000-0  11264-4 0  9993,2 56495  69.9999 257.6001 0002988 268.3209  91.7645 15.69926265 19430,6737.245,91.724,361.123,357.097,0.0
56495.0,STARLINK-5529,PAYLOAD,2023-09-12 09:45:16,15.69926432,0.0003434,69.9981,254.732,255.6046,104.4769,-6.7676e-06,-1.027e-05,0.0,0 STARLINK-5529,1 56495U 23064AZ  23255.40644522 -.00001027  00000-0 -67676-5 0  9997,2 56495  69.9981 254.7320 0003434 255.6046 104.4769 15.69926432 19949,6737.244,91.724,361.423,356.796,0.0
56495.0,STARLINK-5529,PAYLOAD,2023-09-12 17:24:02,15.69921206,0.0003005,69.9988,253.8357,274.4359,85.6493,9.5518e-06,9.36e-06,0.0,0 STARLINK-5529,1 56495U 23064AZ  23255.72503278  .00000936  00000-0  95518-5 0  9996,2 56495  69.9988 253.8357 0003005 274.4359  85.6493 15.69921206 19641,6737.259,91.724,361.149,357.1,0.0
56495.0,STARLINK-5529,PAYLOAD,2023-09-13 02:34:32,15.69937151,0.0003266,70.0003,252.7619,267.5464,92.5358,1.635e-05,1.755e-05,0.0,0 STARLINK-5529,1 56495U 23064AZ  23256.10731996  .00001755  00000-0  16350-4 0  9995,2 56495  70.0003 252.7619 0003266 267.5464  92.5358 15.69937151 20050,6737.214,91.723,361.279,356.878,0.0
56495.0,STARLINK-5529,PAYLOAD,2023-09-13 08:41:31,15.69949477,0.0003483,69.9988,252.0443,263.3444,96.7355,2.3592e-05,2.628e-05,0.0,0 STARLINK-5529,1 56495U 23064AZ  23256.36217472  .00002628  00000-0  23592-4 0  9997,2 56495  69.9988 252.0443 0003483 263.3444  96.7355 15.69949477 20091,6737.179,91.723,361.39,356.697,0.0
